ONEWEB-0055             
1 45443U 20020V   21013.66668981 -.00026317  00000-0 -74482-1 0  9998
2 45443  87.8825  54.7953 0001847  99.8418 227.7491 13.11434438  1692
ONEWEB-0093             
1 45444U 20020W   21013.66668981  .00000013  00000-0  00000-0 0  9996
2 45444  87.8829  54.8397 0013050  28.8731 134.2388 13.12337954  1715
ONEWEB-0029             
1 45445U 20020X   21013.66668981 -.00026187  00000-0 -74110-1 0  9993
2 45445  87.8843  54.8217 0001826  95.4053 239.4781 13.11437776  1692
ONEWEB-0068             
1 45446U 20020Y   21013.66668981 -.00028467  00000-0 -80580-1 0  9995
2 45446  87.8856  54.8404 0001446 115.0711  65.5639 13.11437569  1705
ONEWEB-0046             
1 45447U 20020Z   21013.66668981 -.00028427  00000-0 -80464-1 0  9993
2 45447  87.8860  54.8428 0001603  92.4899 102.7871 13.11439716  1705
ONEWEB-0063             
1 45448U 20020AA  21013.66668981 -.00026000  00000-0 -73589-1 0  9999
2 45448  87.8842  54.8639 0001123  81.7011 267.8067 13.11429599  1690
ONEWEB-0019             
1 45449U 20020AB  21013.66668981 -.00028499  00000-0 -80674-1 0  9997
2 45449  87.8883  54.8113 0001904  94.6125  78.7844 13.11434991  1693
ONEWEB-0094             
1 45450U 20020AC  21013.66668981 -.00049362  00000-0 -50636-2 0  9997
2 45450  87.5753  45.1769 0024844 307.4764 323.3437 14.90570250  1740
ONEWEB-0087             
1 45451U 20020AD  21013.66668981  .00007398  00000-0  20822-1 0  9992
2 45451  87.8858  54.8390 0001758  95.0131 225.0481 13.11415787  1690
ONEWEB-0082             
1 45452U 20020AE  21013.66668981 -.00026517  00000-0 -75057-1 0  9999
2 45452  87.8840  54.8171 0001632 104.2396 208.6839 13.11428277  1698
ONEWEB-0050             
1 45453U 20020AF  21013.66668981 -.00049597  00000-0 -45682-2 0  9995
2 45453  87.5398  44.1737 0023686 303.0102 111.2397 14.94865232  1776
ONEWEB-0034             
1 45454U 20020AG  21013.66668981 -.00027691  00000-0 -78381-1 0  9998
2 45454  87.8858  54.8357 0001498  87.5351 166.6875 13.11434960  1698
ONEWEB-0060             
1 45455U 20020AH  21013.66668981 -.00028174  00000-0 -79747-1 0  9993
2 45455  87.8862  54.8256 0001677  94.1184 130.6022 13.11439712  1706
ONEWEB-0086             
1 45456U 20020AJ  21013.66668981 -.00028417  00000-0 -80438-1 0  9993
2 45456  87.8853  54.8251 0001620  92.7209  65.7858 13.11437576  1703
ONEWEB-0088             
1 45457U 20020AK  21013.66668981 -.00027799  00000-0 -78689-1 0  9991
2 45457  87.8856  54.8626 0001509  90.2781 156.6377 13.11433522  1698
ONEWEB-0102             
1 47258U 20100A   21013.57503949 -.00451419  00000-0 -16099-1 0  9990
2 47258  87.4220  30.4257 0008230 181.4756 178.6471 15.30821315  4015
ONEWEB-0109             
1 47259U 20100B   21013.46515487 -.00451294  00000-0 -31476-1 0  9996
2 47259  87.3898  30.5640 0007894 159.7691 200.3861 15.07737265  3978
ONEWEB-0110             
1 47260U 20100C   21013.57829533 -.00440816  00000-0 -16003-1 0  9997
2 47260  87.4241  30.4220 0005854 166.3608 193.7801 15.30228389  4015
ONEWEB-0111             
1 47261U 20100D   21013.58334491 -.01395636  00000-0 -10790+0 0  9998
2 47261  87.3888  30.5354 0008253 173.9105 135.1587 15.04783205  1756
ONEWEB-0114             
1 47262U 20100E   21013.50001157 -.01337746  00000-0 -10393+0 0  9998
2 47262  87.3724  30.5596 0009136 160.3220  11.5246 15.04457580  1789
ONEWEB-0117             
1 47263U 20100F   21013.56732376 -.00391508  00000-0 -25047-1 0  9998
2 47263  87.4003  30.5193 0009595 184.7891 175.3258 15.10570250  3991
ONEWEB-0118             
1 47264U 20100G   21013.58334491 -.01440949  00000-0 -53287-1 0  9999
2 47264  87.4270  30.3954 0011826 168.3840 343.0017 15.30862744  1813
ONEWEB-0119             
1 47265U 20100H   21013.53513525 -.00419656  00000-0 -15369-1 0  9991
2 47265  87.4132  30.4433 0011745 174.6041 185.5338 15.29784003  4005
ONEWEB-0120             
1 47266U 20100J   21013.57067987 -.00435177  00000-0 -14907-1 0  9995
2 47266  87.4206  30.4183 0008428 172.5670 187.5707 15.32043600  4017
ONEWEB-0121             
1 47267U 20100K   21013.58334491 -.01430266  00000-0 -10064+0 0  9997
2 47267  87.4054  30.5221 0010876 177.1746 311.3034 15.08298748  1877
ONEWEB-0122             
1 47268U 20100L   21013.53842382 -.00410806  00000-0 -29524-1 0  9996
2 47268  87.3960  30.5653 0006608 170.2965 189.8401 15.06440402  3981
ONEWEB-0123             
1 47269U 20100M   21013.51918637 -.00436496  00000-0 -16413-1 0  9998
2 47269  87.4242  30.4524 0007516 153.6520 206.5113 15.29053211  4007
ONEWEB-0124             
1 47270U 20100N   21013.50001157 -.01424081  00000-0 -86892-1 0  9995
2 47270  87.4253  30.5136 0009485 157.0277 124.7948 15.13440255  3978
ONEWEB-0125             
1 47271U 20100P   21012.86446863 -.00428627  00000-0 -18352-1 0  9996
2 47271  87.4031  30.7159 0008578 151.9549 208.2162 15.24724584  3885
ONEWEB-0126             
1 47272U 20100Q   21013.41667824 -.01351614  00000-0 -52366-1 0  9996
2 47272  87.4152  30.4825 0009959 155.7964 344.8540 15.29193903  1856
ONEWEB-0127             
1 47273U 20100R   21013.58334491 -.01431701  00000-0 -53697-1 0  9990
2 47273  87.4290  30.4115 0011261 170.1950 322.0638 15.30399420  1835
ONEWEB-0128             
1 47274U 20100S   21013.50001157 -.01363517  00000-0 -45061-1 0  9998
2 47274  87.4137  30.4102 0012882 148.4175  14.3189 15.34241819  1800
ONEWEB-0129             
1 47275U 20100T   21013.45386454 -.00419146  00000-0 -18300-1 0  9994
2 47275  87.4034  30.5131 0011932 168.4907 191.6615 15.23984860  3971
ONEWEB-0130             
1 47276U 20100U   21013.53067619 -.00432321  00000-0 -17423-1 0  9998
2 47276  87.4272  30.4622 0008541 149.8767 210.2974 15.26751134  3996
ONEWEB-0131             
1 47277U 20100V   21013.51693788 -.00452774  00000-0 -16801-1 0  9992
2 47277  87.4227  30.4471 0007382 170.7560 189.3827 15.29554125  3992
ONEWEB-0132             
1 47278U 20100W   21013.56071581 -.00356223  00000-0 -18888-1 0  9998
2 47278  87.4046  30.5158 0005749 186.7416 173.3750 15.17117076  3981
ONEWEB-0133             
1 47279U 20100X   21013.55259329 -.00588504  00000-0 -19444-1 0  9994
2 47279  87.4214  30.4112 0010700 167.3730 192.7792 15.33785872  4003
ONEWEB-0134             
1 47280U 20100Y   21013.56414990 -.00354430  00000-0 -11945-1 0  9991
2 47280  87.4222  30.4146 0011107 176.1434 183.9904 15.32196960  4002
ONEWEB-0135             
1 47281U 20100Z   21013.53840461 -.00668362  00000-0 -20879-1 0  9993
2 47281  87.4202  30.3940 0012749 139.8786 220.3410 15.35427547  4000
ONEWEB-0136             
1 47282U 20100AA  21013.52635811 -.00418900  00000-0 -16326-1 0  9997
2 47282  87.4251  30.4479 0011720 174.6560 185.4815 15.27753519  3997
ONEWEB-0137             
1 47283U 20100AB  21013.50001157 -.01350833  00000-0 -87186-1 0  9999
2 47283  87.4180  30.5384 0011041 157.0410  10.7839 15.11251176  3979
ONEWEB-0138             
1 47284U 20100AC  21013.54667403 -.00436155  00000-0 -26344-1 0  9996
2 47284  87.3860  30.5035 0011282 167.6508 192.5011 15.12833550  3984
ONEWEB-0139             
1 47285U 20100AD  21013.50001157 -.01363733  00000-0 -49470-1 0  9998
2 47285  87.4238  30.4257 0012705 152.9177 315.9968 15.31293055  3994
ONEWEB-0140             
1 47286U 20100AE  21013.58334491 -.01458191  00000-0 -74302-1 0  9992
2 47286  87.3971  30.4712 0009269 181.7782 157.4433 15.19806153  1851
ONEWEB-0141             
1 47287U 20100AF  21013.51609033 -.00431666  00000-0 -20334-1 0  9996
2 47287  87.4070  30.5028 0011500 155.0106 205.1698 15.21479967  3981
ONEWEB-0142             
1 47288U 20100AG  21013.50001157 -.01366600  00000-0 -58865-1 0  9995
2 47288  87.4308  30.4678 0008176 160.9807  82.0974 15.25783287  3980
ONEWEB-0143             
1 47289U 20100AH  21013.53464479 -.00439880  00000-0 -21653-1 0  9994
2 47289  87.3998  30.5061 0009952 173.4385 186.6992 15.20033994  3984
ONEWEB-0144             
1 47290U 20100AJ  21013.54913545 -.00431139  00000-0 -21833-1 0  9999
2 47290  87.3962  30.5117 0005423 168.2351 191.9020 15.19065694  3973
ONEWEB-0145             
1 47291U 20100AK  21013.41399008 -.00580444  00000-0 -18682-1 0  9990
2 47291  87.4145  30.4465 0010930 155.3512 204.8265 15.34573446  3979
ONEWEB-0146             
1 47292U 20100AL  21013.50001157 -.01404738  00000-0 -67316-1 0  9996
2 47292  87.4219  30.4885 0011580 169.7951 271.2281 15.22256244  3973
ONEWEB-0147             
1 47293U 20100AM  21013.57184434 -.00414417  00000-0 -20987-1 0  9991
2 47293  87.3924  30.4632 0009564 156.3977 203.7707 15.18944793  3987
